{
  "type": "FeatureCollection",
  "features": [
    {
      "type": "Feature",
      "properties": {
        "norad_id": 30806,
        "name": "FENGYUN 1C DEB",
        "group": "fengyun-1c-debris",
        "lat": 77.10449605160282,
        "lon": -116.45776330179046,
        "alt_km": 798.2572103654466,
        "timestamp": "2025-12-19T08:58:49.616911+00:00",
        "meta_object_name": "FENGYUN 1C DEB",
        "meta_object_id": "1999-025AUQ",
        "meta_epoch": "2025-12-18T22:33:05.282208",
        "meta_mean_motion": 13.70428147,
        "meta_eccentricity": 0.02681919,
        "meta_inclination": 99.0354,
        "meta_ra_of_asc_node": 19.1077,
        "meta_arg_of_pericenter": 114.1073,
        "meta_mean_anomaly": 3.1426,
        "meta_ephemeris_type": 0,
        "meta_classification_type": "U",
        "meta_norad_cat_id": 30806,
        "meta_element_set_no": 999,
        "meta_rev_at_epoch": 93780,
        "meta_bstar": 0.00062916221,
        "meta_mean_motion_dot": 6.79e-06,
        "meta_mean_motion_ddot": 0,
        "tle_line1": "1 30806U 99025AUQ 25352.93964447  .00000679  00000+0  62916-3 0  9993",
        "tle_line2": "2 30806  99.0354  19.1077 0268191 114.1073   3.1426 13.70428147937808"
      },
      "geometry": {
        "type": "Point",
        "coordinates": [
          -116.45776330179046,
          77.10449605160282
        ]
      }
    },
    {
      "type": "Feature",
      "properties": {
        "norad_id": 30809,
        "name": "FENGYUN 1C DEB",
        "group": "fengyun-1c-debris",
        "lat": -53.499978120878,
        "lon": -109.59759337162038,
        "alt_km": 795.2385320191725,
        "timestamp": "2025-12-19T08:58:49.616921+00:00",
        "meta_object_name": "FENGYUN 1C DEB",
        "meta_object_id": "1999-025AUT",
        "meta_epoch": "2025-12-18T18:27:01.052352",
        "meta_mean_motion": 14.29280785,
        "meta_eccentricity": 0.00523372,
        "meta_inclination": 98.7897,
        "meta_ra_of_asc_node": 81.8614,
        "meta_arg_of_pericenter": 154.7798,
        "meta_mean_anomaly": 205.5956,
        "meta_ephemeris_type": 0,
        "meta_classification_type": "U",
        "meta_norad_cat_id": 30809,
        "meta_element_set_no": 999,
        "meta_rev_at_epoch": 97173,
        "meta_bstar": 0.0013403116,
        "meta_mean_motion_dot": 3.416e-05,
        "meta_mean_motion_ddot": 0,
        "tle_line1": "1 30809U 99025AUT 25352.76876218  .00003416  00000+0  13403-2 0  9993",
        "tle_line2": "2 30809  98.7897  81.8614 0052337 154.7798 205.5956 14.29280785971734"
      },
      "geometry": {
        "type": "Point",
        "coordinates": [
          -109.59759337162038,
          -53.499978120878
        ]
      }
    },
    {
      "type": "Feature",
      "properties": {
        "norad_id": 30810,
        "name": "FENGYUN 1C DEB",
        "group": "fengyun-1c-debris",
        "lat": 22.249140560995585,
        "lon": 161.43874791145208,
        "alt_km": 751.9031516123459,
        "timestamp": "2025-12-19T08:58:49.616931+00:00",
        "meta_object_name": "FENGYUN 1C DEB",
        "meta_object_id": "1999-025AUU",
        "meta_epoch": "2025-12-18T10:38:45.406176",
        "meta_mean_motion": 14.04199114,
        "meta_eccentricity": 0.01798579,
        "meta_inclination": 98.6616,
        "meta_ra_of_asc_node": 164.1261,
        "meta_arg_of_pericenter": 38.8916,
        "meta_mean_anomaly": 322.5034,
        "meta_ephemeris_type": 0,
        "meta_classification_type": "U",
        "meta_norad_cat_id": 30810,
        "meta_element_set_no": 999,
        "meta_rev_at_epoch": 94463,
        "meta_bstar": 0.0023697914,
        "meta_mean_motion_dot": 4.304e-05,
        "meta_mean_motion_ddot": 0,
        "tle_line1": "1 30810U 99025AUU 25352.44358109  .00004304  00000+0  23698-2 0  9998",
        "tle_line2": "2 30810  98.6616 164.1261 0179857  38.8916 322.5034 14.04199114944632"
      },
      "geometry": {
        "type": "Point",
        "coordinates": [
          161.43874791145208,
          22.249140560995585
        ]
      }
    },
    {
      "type": "Feature",
      "properties": {
        "norad_id": 30811,
        "name": "FENGYUN 1C DEB",
        "group": "fengyun-1c-debris",
        "lat": 18.07003304837268,
        "lon": 29.190379264810236,
        "alt_km": 826.3530509646653,
        "timestamp": "2025-12-19T08:58:49.616941+00:00",
        "meta_object_name": "FENGYUN 1C DEB",
        "meta_object_id": "1999-025AUV",
        "meta_epoch": "2025-12-17T14:34:44.155200",
        "meta_mean_motion": 13.61857756,
        "meta_eccentricity": 0.02781138,
        "meta_inclination": 98.7814,
        "meta_ra_of_asc_node": 30.4887,
        "meta_arg_of_pericenter": 33.4511,
        "meta_mean_anomaly": 328.3862,
        "meta_ephemeris_type": 0,
        "meta_classification_type": "U",
        "meta_norad_cat_id": 30811,
        "meta_element_set_no": 999,
        "meta_rev_at_epoch": 92933,
        "meta_bstar": 0.0014274331,
        "meta_mean_motion_dot": 1.384e-05,
        "meta_mean_motion_ddot": 0,
        "tle_line1": "1 30811U 99025AUV 25351.60745550  .00001384  00000+0  14274-2 0  9991",
        "tle_line2": "2 30811  98.7814  30.4887 0278113  33.4511 328.3862 13.61857756929338"
      },
      "geometry": {
        "type": "Point",
        "coordinates": [
          29.190379264810236,
          18.07003304837268
        ]
      }
    },
    {
      "type": "Feature",
      "properties": {
        "norad_id": 30814,
        "name": "FENGYUN 1C DEB",
        "group": "fengyun-1c-debris",
        "lat": -79.84512894783799,
        "lon": 87.15641742445753,
        "alt_km": 685.883902182356,
        "timestamp": "2025-12-19T08:58:49.616951+00:00",
        "meta_object_name": "FENGYUN 1C DEB",
        "meta_object_id": "1999-025AUY",
        "meta_epoch": "2025-12-18T22:09:26.276256",
        "meta_mean_motion": 14.60580843,
        "meta_eccentricity": 0.00303865,
        "meta_inclination": 99.0813,
        "meta_ra_of_asc_node": 329.9116,
        "meta_arg_of_pericenter": 212.9039,
        "meta_mean_anomaly": 202.4051,
        "meta_ephemeris_type": 0,
        "meta_classification_type": "U",
        "meta_norad_cat_id": 30814,
        "meta_element_set_no": 999,
        "meta_rev_at_epoch": 97832,
        "meta_bstar": 0.0018802787,
        "meta_mean_motion_dot": 9.152e-05,
        "meta_mean_motion_ddot": 0,
        "tle_line1": "1 30814U 99025AUY 25352.92322079  .00009152  00000+0  18803-2 0  9990",
        "tle_line2": "2 30814  99.0813 329.9116 0030386 212.9039 202.4051 14.60580843978327"
      },
      "geometry": {
        "type": "Point",
        "coordinates": [
          87.15641742445753,
          -79.84512894783799
        ]
      }
    },
    {
      "type": "Feature",
      "properties": {
        "norad_id": 30815,
        "name": "FENGYUN 1C DEB",
        "group": "fengyun-1c-debris",
        "lat": -62.507488338719334,
        "lon": -48.10468656195566,
        "alt_km": 654.1771312251312,
        "timestamp": "2025-12-19T08:58:49.616961+00:00",
        "meta_object_name": "FENGYUN 1C DEB",
        "meta_object_id": "1999-025AUZ",
        "meta_epoch": "2025-12-18T09:20:57.676416",
        "meta_mean_motion": 14.73831797,
        "meta_eccentricity": 0.00026643,
        "meta_inclination": 99.2987,
        "meta_ra_of_asc_node": 149.1188,
        "meta_arg_of_pericenter": 272.962,
        "meta_mean_anomaly": 149.7267,
        "meta_ephemeris_type": 0,
        "meta_classification_type": "U",
        "meta_norad_cat_id": 30815,
        "meta_element_set_no": 999,
        "meta_rev_at_epoch": 97863,
        "meta_bstar": 0.0034997568,
        "meta_mean_motion_dot": 0.00022927,
        "meta_mean_motion_ddot": 0,
        "tle_line1": "1 30815U 99025AUZ 25352.38955644  .00022927  00000+0  34998-2 0  9999",
        "tle_line2": "2 30815  99.2987 149.1188 0002664 272.9620 149.7267 14.73831797978630"
      },
      "geometry": {
        "type": "Point",
        "coordinates": [
          -48.10468656195566,
          -62.507488338719334
        ]
      }
    },
    {
      "type": "Feature",
      "properties": {
        "norad_id": 30816,
        "name": "FENGYUN 1C DEB",
        "group": "fengyun-1c-debris",
        "lat": -27.505872029885662,
        "lon": 68.56732695179616,
        "alt_km": 821.0846845725673,
        "timestamp": "2025-12-19T08:58:49.616971+00:00",
        "meta_object_name": "FENGYUN 1C DEB",
        "meta_object_id": "1999-025AVA",
        "meta_epoch": "2025-12-18T18:26:20.525568",
        "meta_mean_motion": 14.18045096,
        "meta_eccentricity": 0.00519661,
        "meta_inclination": 98.9144,
        "meta_ra_of_asc_node": 63.2714,
        "meta_arg_of_pericenter": 37.9607,
        "meta_mean_anomaly": 83.4795,
        "meta_ephemeris_type": 0,
        "meta_classification_type": "U",
        "meta_norad_cat_id": 30816,
        "meta_element_set_no": 999,
        "meta_rev_at_epoch": 96479,
        "meta_bstar": 0.0011919305,
        "meta_mean_motion_dot": 2.431e-05,
        "meta_mean_motion_ddot": 0,
        "tle_line1": "1 30816U 99025AVA 25352.76829312  .00002431  00000+0  11919-2 0  9990",
        "tle_line2": "2 30816  98.9144  63.2714 0051966  37.9607  83.4795 14.18045096964796"
      },
      "geometry": {
        "type": "Point",
        "coordinates": [
          68.56732695179616,
          -27.505872029885662
        ]
      }
    }
  ]
}